IRIDIUM 7               
1 24793U 97020B   24266.13112573  .00000753  00000+0  25543-3 0  9992
2 24793  86.3908 289.2229 0002012  90.1038 270.0389 14.35433717433659
IRIDIUM 5               
1 24795U 97020D   24266.08777368  .00011506  00000+0  10525-2 0  9998
2 24795  86.3961 206.8248 0119519  19.4118 341.1601 14.89503506445518
IRIDIUM 4               
1 24796U 97020E   24265.51813158  .00000765  00000+0  25475-3 0  9990
2 24796  86.3902 286.5309 0002257  87.9637 272.1819 14.36358228433896
IRIDIUM 914             
1 24836U 97030A   24266.12341017  .00000873  00000+0  26981-3 0  9997
2 24836  86.3892 295.6869 0003384  63.5190 296.6356 14.40257671430638
IRIDIUM 16              
1 24841U 97030F   24265.40638482  .00000959  00000+0  30999-3 0  9997
2 24841  86.4037 318.2293 0001701 158.8808 201.2460 14.38155411428365
IRIDIUM 911             
1 24842U 97030G   24266.20908464  .00001100  00000+0  29789-3 0  9991
2 24842  86.4458 316.9311 0011978 270.9207  89.0623 14.46875187436309
IRIDIUM 17              
1 24870U 97034B   24265.29692114  .00001168  00000+0  38557-3 0  9993
2 24870  86.4013 347.8378 0002899 127.6798 232.4663 14.37261995424950
IRIDIUM 920             
1 24871U 97034C   24265.47466230  .00000979  00000+0  29885-3 0  9995
2 24871  86.3998 327.6241 0009569 243.0883 116.9339 14.40962079427871
